[
  {
    "tle0": "2019-052C",
    "tle1": "1 44488U 19052C   23048.45569237  .00023787  00000+0  12634-2 0  9997",
    "tle2": "2 44488  97.4712 120.7662 0019945 187.3331 182.1610 15.15135118193078",
    "tle_source": "Celestrak (active)",
    "sat_id": "GZWQ-2610-2979-8757-6077",
    "norad_cat_id": 44488,
    "updated": "2023-02-17T17:05:56.822795+0000"
  },
  {
    "tle0": "CARBONITE 2",
    "tle1": "1 43115U 18004E   23048.14116633  .00013847  00000+0  51132-3 0  9996",
    "tle2": "2 43115  97.3309 119.6192 0008224 207.6624 152.4179 15.27831890283421",
    "tle_source": "Celestrak (active)",
    "sat_id": "DUVR-6579-0336-4357-6373",
    "norad_cat_id": 43115,
    "updated": "2023-02-17T11:05:57.574319+0000"
  },
  {
    "tle0": "0 OBJECT M",
    "tle1": "1 46838U 20079M   23048.52515609  .00030273  00000-0  58848-3 0  9998",
    "tle2": "2 46838  97.1711 122.5767 0005579 163.1018 320.9597 15.47544403128039",
    "tle_source": "Space-Track.org",
    "sat_id": "RAJP-5907-7976-7915-4438",
    "norad_cat_id": 46838,
    "updated": "2023-02-17T17:05:58.436802+0000"
  },
  {
    "tle0": "0 STEP CUBE LAB-II",
    "tle1": "1 52897U 22065D   23048.63820777  .00002598  00000-0  56658-3 0  9990",
    "tle2": "2 52897  98.0463 196.9421 0008481 222.9735 137.0839 14.58679990 34002",
    "tle_source": "Space-Track.org",
    "sat_id": "ODFG-1778-1250-1047-4122",
    "norad_cat_id": 52897,
    "updated": "2023-02-17T17:05:58.449164+0000"
  },
  {
    "tle0": "0 RANDEV",
    "tle1": "1 52898U 22065E   23048.49058649  .00002730  00000-0  59367-3 0  9994",
    "tle2": "2 52898  98.0473 196.8218 0007760 225.3307 134.7277 14.58762095 33703",
    "tle_source": "Space-Track.org",
    "sat_id": "LYKB-5376-2648-5150-0020",
    "norad_cat_id": 52898,
    "updated": "2023-02-17T17:05:58.480350+0000"
  },
  {
    "tle0": "0 CTIM",
    "tle1": "1 52950U 22074G   23048.07322497  .00052570  00000-0  16631-2 0  9995",
    "tle2": "2 52950  45.0110 305.1788 0007261 180.8398 179.2480 15.32046987 35115",
    "tle_source": "Space-Track.org",
    "sat_id": "CSGC-5605-1718-3109-5402",
    "norad_cat_id": 52950,
    "updated": "2023-02-17T11:05:57.066566+0000"
  },
  {
    "tle0": "0 SNUGLITE-II",
    "tle1": "1 52899U 22065F   23048.21134560  .00002860  00000-0  62063-3 0  9993",
    "tle2": "2 52899  98.0473 196.5565 0007343 226.5096 133.5494 14.58830300 33366",
    "tle_source": "Space-Track.org",
    "sat_id": "YFNZ-9504-4902-9033-1722",
    "norad_cat_id": 52899,
    "updated": "2023-02-17T11:05:57.608293+0000"
  },
  {
    "tle0": "AISSAT 1",
    "tle1": "1 36797U 10035C   23048.11606221  .00004200  00000+0  46349-3 0  9991",
    "tle2": "2 36797  98.2335 246.2242 0011860  93.1867 267.0705 14.87998791682945",
    "tle_source": "Celestrak (active)",
    "sat_id": "RLHS-9707-5174-8281-4742",
    "norad_cat_id": 36797,
    "updated": "2023-02-17T17:05:58.533216+0000"
  },
  {
    "tle0": "STARLINK-2342",
    "tle1": "1 47883U 21021Z   23047.81651781  .00001154  00000+0  96370-4 0  9998",
    "tle2": "2 47883  53.0485 250.4613 0001285  82.6392 277.4743 15.06400675107954",
    "tle_source": "Celestrak (active)",
    "sat_id": "TZRH-5939-4568-4178-0982",
    "norad_cat_id": 47883,
    "updated": "2023-02-17T04:54:16.141171+0000"
  },
  {
    "tle0": "0 SPACEBEE-100",
    "tle1": "1 48883U 21059E   23048.34800461  .00034794  00000-0  14718-2 0  9991",
    "tle2": "2 48883  97.5764 183.0926 0008030 329.1622  30.9142 15.23093234 91096",
    "tle_source": "Space-Track.org",
    "sat_id": "FXLH-9027-2252-9657-3207",
    "norad_cat_id": 48883,
    "updated": "2023-02-17T17:05:58.519703+0000"
  },
  {
    "tle0": "0 SBUDNIC",
    "tle1": "1 52774U 22057AU  23048.27832315  .00070704  00000-0  25699-2 0  9990",
    "tle2": "2 52774  97.5270 166.8620 0005389 356.5035   3.6166 15.27983442 40582",
    "tle_source": "Space-Track.org",
    "sat_id": "SSBP-7686-6169-1385-2756",
    "norad_cat_id": 52774,
    "updated": "2023-02-17T17:05:58.502280+0000"
  },
  {
    "tle0": "0 FOSSASAT2E12",
    "tle1": "1 52773U 22057AT  23048.31939645  .00047286  00000-0  19384-2 0  9991",
    "tle2": "2 52773  97.5319 166.5056 0009499  22.6323 337.5331 15.24068113 40569",
    "tle_source": "Space-Track.org",
    "sat_id": "MYQU-2688-4982-5356-0669",
    "norad_cat_id": 52773,
    "updated": "2023-02-17T11:05:57.635719+0000"
  },
  {
    "tle0": "FOSSASAT-2E11",
    "tle1": "1 52750U 22057U   23048.11617237  .00075515  00000+0  29370-2 0  9995",
    "tle2": "2 52750  97.5319 166.4808 0008478  18.9528 341.2024 15.25695271 40540",
    "tle_source": "Celestrak (active)",
    "sat_id": "RQGN-8584-9526-1967-0454",
    "norad_cat_id": 52750,
    "updated": "2023-02-17T11:05:57.626941+0000"
  },
  {
    "tle0": "AIS & APRS & ARIS & R/B",
    "tle1": "1 44104U 19018AC  23048.12271890  .00027086  00000+0  63192-3 0  9995",
    "tle2": "2 44104  97.3789 137.7696 0045333 335.1527  24.7536 15.41096286217190",
    "tle_source": "Celestrak (active)",
    "sat_id": "REOV-6010-1704-2080-0327",
    "norad_cat_id": 44104,
    "updated": "2023-02-17T08:54:09.181889+0000"
  },
  {
    "tle0": "MIMAN",
    "tle1": "1 52900U 22065G   23047.97476810  .00001790  00000+0  39507-3 0  9992",
    "tle2": "2 52900  98.0473 196.2607 0007089 221.8629 138.2031 14.58474541 32943",
    "tle_source": "Celestrak (active)",
    "sat_id": "AOTT-8678-9365-5674-2308",
    "norad_cat_id": 52900,
    "updated": "2023-02-17T08:54:13.178929+0000"
  },
  {
    "tle0": "0 ARMSAT1 URDANETA",
    "tle1": "1 52765U 22057AK  23048.49452737  .00018778  00000-0  95424-3 0  9997",
    "tle2": "2 52765  97.5354 165.7542 0012290  26.2937 101.0367 15.16853138 40523",
    "tle_source": "Space-Track.org",
    "sat_id": "QBTU-7656-9422-5105-6532",
    "norad_cat_id": 99386,
    "updated": "2023-02-17T17:05:58.626127+0000"
  },
  {
    "tle0": "TELEOS 1",
    "tle1": "1 41169U 15077D   23047.73406601  .00016018  00000+0  77129-3 0  9998",
    "tle2": "2 41169  14.9798 186.9013 0009702 225.6198 134.3335 15.15984531396608",
    "tle_source": "Celestrak (active)",
    "sat_id": "VLLK-7826-1357-6055-8690",
    "norad_cat_id": 41169,
    "updated": "2023-02-17T00:54:14.896723+0000"
  },
  {
    "tle0": "0 YOUTHSAT",
    "tle1": "1 37388U 11015B   23048.01763128  .00000553  00000-0  25588-3 0  9996",
    "tle2": "2 37388  98.3083  69.0526 0013905 317.6814  71.2433 14.24504518614957",
    "tle_source": "Space-Track.org",
    "sat_id": "WQYT-3877-9353-7434-8931",
    "norad_cat_id": 37388,
    "updated": "2023-02-17T02:54:16.270899+0000"
  },
  {
    "tle0": "0 IRS 1B",
    "tle1": "1 21688U 91061A   23047.87265681 -.00000038  00000-0  53261-5 0  9995",
    "tle2": "2 21688  99.3013  15.2730 0025190  72.6078 315.9655 13.97465642498582",
    "tle_source": "Space-Track.org",
    "sat_id": "DGNB-2103-4908-2396-6259",
    "norad_cat_id": 21688,
    "updated": "2023-02-17T02:54:16.255947+0000"
  },
  {
    "tle0": "0 EXPLORER 50 (IMP-8)",
    "tle1": "1 06893U 73078A   23046.41125073 -.00000927  00000-0  00000-0 0  9998",
    "tle2": "2 06893  29.5627 291.0939 2025770 188.8973 359.1047  0.08228093 10898",
    "tle_source": "Space-Track.org",
    "sat_id": "KBNZ-1012-8719-2266-6532",
    "norad_cat_id": 6893,
    "updated": "2023-02-02T20:06:46.439724+0000"
  },
  {
    "tle0": "0 GOES 17",
    "tle1": "1 43226U 18022A   23048.54100722 -.00000096  00000-0  00000+0 0  9993",
    "tle2": "2 43226   0.0159  95.2243 0001171 288.7951 213.2842  1.00271075 18249",
    "tle_source": "Space-Track.org",
    "sat_id": "HQQK-4977-1513-0996-6919",
    "norad_cat_id": 43226,
    "updated": "2023-02-17T17:05:58.554641+0000"
  },
  {
    "tle0": "0 ATS 5",
    "tle1": "1 04068U 69069A   23047.83573042 -.00000260  00000-0  00000-0 0  9995",
    "tle2": "2 04068   3.0936 277.3606 0002611 345.2483 139.9660  0.99493802 34220",
    "tle_source": "Space-Track.org",
    "sat_id": "GEVA-8222-4587-3444-3413",
    "norad_cat_id": 4068,
    "updated": "2023-02-17T02:54:16.233947+0000"
  },
  {
    "tle0": "AGILE",
    "tle1": "1 31135U 07013A   23047.59268945  .00042080  00000+0  81738-3 0  9991",
    "tle2": "2 31135   2.4677  98.8694 0008019 353.3423   6.6525 15.45260389514676",
    "tle_source": "Celestrak (active)",
    "sat_id": "EPHS-2009-9159-9318-4409",
    "norad_cat_id": 31135,
    "updated": "2023-02-17T04:54:16.155481+0000"
  },
  {
    "tle0": "ASTROBIOCUBESAT",
    "tle1": "1 53107U 22080C   22364.14200119 -.00000003  00000+0  00000+0 0  9995",
    "tle2": "2 53107  70.1674  18.5562 0013489 216.1674 143.8074  6.42110599 10793",
    "tle_source": "Celestrak (active)",
    "sat_id": "EGHR-0762-2641-1740-1019",
    "norad_cat_id": 53107,
    "updated": "2023-01-20T20:49:37.229775+0000"
  },
  {
    "tle0": "0 OBJECT E",
    "tle1": "1 53109U 22080E   23047.26444445 -.00000003  00000-0  00000+0 0  9992",
    "tle2": "2 53109  70.1579   1.4796 0008905 203.1400 156.8868  6.42584307 13878",
    "tle_source": "Space-Track.org",
    "sat_id": "ZYKO-7290-5830-6811-4050",
    "norad_cat_id": 53109,
    "updated": "2023-02-16T16:54:12.364045+0000"
  },
  {
    "tle0": "CELESTA",
    "tle1": "1 53111U 22080G   22310.17474584 -.00000003  00000+0  00000+0 0  9993",
    "tle2": "2 53111  70.4223  37.2580 0024959 243.8956 115.9136  6.43203861  7301",
    "tle_source": "Celestrak (active)",
    "sat_id": "XKZZ-2829-5729-9508-2566",
    "norad_cat_id": 53111,
    "updated": "2022-11-18T19:03:09.606310+0000"
  },
  {
    "tle0": "0 MT-CUBE-2",
    "tle1": "1 53106U 22080B   23034.19933790 -.00000003  00000-0  00000-0 0  9994",
    "tle2": "2 53106  70.1777   6.2677 0008922 216.5435 143.4616  6.42557193 13147",
    "tle_source": "Space-Track.org",
    "sat_id": "KGEF-8685-2681-9687-2264",
    "norad_cat_id": 53106,
    "updated": "2023-02-04T04:06:43.677547+0000"
  }
]